STARLINK-5766           
1 56025U 23042AR  26068.28313572  .00072833  00000+0  52618-2 0  9998
2 56025  42.9974  45.7717 0002389 188.7608 171.3193 15.03167581162995
STARLING 4              
1 57386U 23100A   26066.02836485 -.00000009  00000+0  55676-5 0  9994
2 57386  99.5115  59.9711 0007803  83.0949 277.1159 15.06148396144525
